0 ARIANE 2 DEB
1 26727U 89006E   13279.68043609  .00000295  00000-0  34114-2 0  5925
2 26727 008.1108 084.4423 7173147 131.0402 096.9971 02.27559724105976
0 ARIANE 2 DEB
1 26727U 89006E   13281.15424318  .00000291  00000-0  32633-2 0  5931
2 26727 008.1161 083.8474 7173409 132.1882 224.3530 02.27561347106017
0 ARIANE 2 DEB
1 26727U 89006E   13283.31739279  .00000262  00000-0  31303-2 0  5948
2 26727 008.1242 082.9747 7173734 133.8718 196.4375 02.27564629106064
0 ARIANE 2 DEB
1 26727U 89006E   13287.77746416  .00000369  00000-0  46964-2 0  5962
2 26727 008.1412 081.1782 7174406 137.3380 250.2638 02.27568776106163
0 ARIANE 2 DEB
1 26727U 89006E   13289.53148466  .00000365  00000-0  46816-2 0  5972
2 26727 008.1477 080.4735 7174644 138.7017 247.2314 02.27571479106206
0 ARIANE 2 DEB
1 26727U 89006E   13290.48275925  .00001089  00000-0  81342-2 0  5998
2 26727 008.0950 080.3474 7176343 139.1819 306.5653 02.27572635106236
0 ARIANE 2 DEB
1 26727U 89006E   13290.72703294  .00000406  00000-0  48754-2 0  5981
2 26727 008.1522 079.9930 7174770 139.6310 146.6836 02.27573570106220
0 ARIANE 2 DEB
1 26727U 89006E   13292.57672163  .00000462  00000-0  50045-2 0  5995
2 26727 008.1596 079.2492 7174964 141.0726 222.0499 02.27576114106276
0 ARIANE 2 DEB
1 26727U 89006E   13293.61477792  .00000440  00000-0  46892-2 0  6006
2 26727 008.1631 078.8359 7174992 141.8756 352.4937 02.27577868106299
